{
  "norad_id": 62327,
  "name": "HULIANWANG DIGUI-05",
  "history": [
    {
      "epoch": "2026-03-28T21:27:57.933792Z",
      "apogee_km": 1169.5078143977225,
      "perigee_km": 1166.3294157726486,
      "latitude_deg": -5.639106195999644e-05,
      "longitude_deg": -137.80721124810324,
      "height_km": 1170.3428591787394,
      "semi_major_axis_km": 7546.055615085185,
      "eccentricity": 0.0002106,
      "inclination_deg": 86.51,
      "raan_deg": 10.4925,
      "arg_perigee_deg": 72.9173,
      "mean_anomaly_deg": 287.2191,
      "mean_motion_rev_day": 13.2441094
    },
    {
      "epoch": "2026-03-29T04:43:07.412448Z",
      "apogee_km": 1169.503222177208,
      "perigee_km": 1166.3338788459923,
      "latitude_deg": 3.199591353515391e-06,
      "longitude_deg": 113.00384297461963,
      "height_km": 1170.3454815745254,
      "semi_major_axis_km": 7546.0555505116,
      "eccentricity": 0.00021,
      "inclination_deg": 86.51,
      "raan_deg": 10.3909,
      "arg_perigee_deg": 72.9686,
      "mean_anomaly_deg": 287.1678,
      "mean_motion_rev_day": 13.24410957
    },
    {
      "epoch": "2026-03-30T04:17:23.203392Z",
      "apogee_km": 1169.4983260174695,
      "perigee_km": 1166.338038107222,
      "latitude_deg": 3.628381047514773e-06,
      "longitude_deg": 118.13961926447293,
      "height_km": 1170.3390918703083,
      "semi_major_axis_km": 7546.055182062346,
      "eccentricity": 0.0002094,
      "inclination_deg": 86.51,
      "raan_deg": 10.0605,
      "arg_perigee_deg": 72.6892,
      "mean_anomaly_deg": 287.4471,
      "mean_motion_rev_day": 13.24411054
    },
    {
      "epoch": "2026-03-30T06:06:10.571328Z",
      "apogee_km": 1169.497473155955,
      "perigee_km": 1166.3388453873868,
      "latitude_deg": 2.0399689650904373e-05,
      "longitude_deg": 90.84229022618273,
      "height_km": 1170.338334459111,
      "semi_major_axis_km": 7546.055159271671,
      "eccentricity": 0.00020929,
      "inclination_deg": 86.51,
      "raan_deg": 10.035,
      "arg_perigee_deg": 72.6519,
      "mean_anomaly_deg": 287.4844,
      "mean_motion_rev_day": 13.2441106
    },
    {
      "epoch": "2026-03-30T13:21:20.042208Z",
      "apogee_km": 1169.495639307279,
      "perigee_km": 1166.340633654716,
      "latitude_deg": -3.207407971210441e-05,
      "longitude_deg": -18.34662957169565,
      "height_km": 1170.3343800235805,
      "semi_major_axis_km": 7546.055136480997,
      "eccentricity": 0.00020905,
      "inclination_deg": 86.51,
      "raan_deg": 9.9334,
      "arg_perigee_deg": 72.4811,
      "mean_anomaly_deg": 287.6551,
      "mean_motion_rev_day": 13.24411066
    }
  ]
}